[
    {
        "Altitude(m)": 706805.2313208893,
        "Argument of Periapsis(deg)": 0.007973084830638947,
        "Eccentricity": 0.0,
        "Inclination(deg)": 45.0,
        "Latitude(deg)": 42.90025758370678,
        "Longitude(deg)": 106.90905623658203,
        "Mean Anomaly(deg)": 106.25505165323656,
        "RAAN(deg)": 94.99247364097927,
        "Satellite Name": "Constellation 1 424",
        "Satellite Number": 424,
        "Semi-Major Axis(m)": 7083131.272910544,
        "Time(s)": 133
    },
    {
        "Altitude(m)": 706801.5832800008,
        "Argument of Periapsis(deg)": 0.008033032836884352,
        "Eccentricity": 0.0,
        "Inclination(deg)": 45.0,
        "Latitude(deg)": 42.88380446382613,
        "Longitude(deg)": 106.98455342401508,
        "Mean Anomaly(deg)": 106.31575279348645,
        "RAAN(deg)": 94.99241705181369,
        "Satellite Name": "Constellation 1 424",
        "Satellite Number": 424,
        "Semi-Major Axis(m)": 7083131.272910544,
        "Time(s)": 134
    },
    {
        "Altitude(m)": 706797.9235994107,
        "Argument of Periapsis(deg)": 0.008092980843129758,
        "Eccentricity": 0.0,
        "Inclination(deg)": 45.0,
        "Latitude(deg)": 42.86729599626357,
        "Longitude(deg)": 107.06000827355507,
        "Mean Anomaly(deg)": 106.37645393373637,
        "RAAN(deg)": 94.99236046264812,
        "Satellite Name": "Constellation 1 424",
        "Satellite Number": 424,
        "Semi-Major Axis(m)": 7083131.272910544,
        "Time(s)": 135
    },
    {
        "Altitude(m)": 706794.2523008698,
        "Argument of Periapsis(deg)": 0.008152928849375162,
        "Eccentricity": 0.0,
        "Inclination(deg)": 45.0,
        "Latitude(deg)": 42.85073224182994,
        "Longitude(deg)": 107.13542069033431,
        "Mean Anomaly(deg)": 106.43715507398628,
        "RAAN(deg)": 94.99230387348254,
        "Satellite Name": "Constellation 1 424",
        "Satellite Number": 424,
        "Semi-Major Axis(m)": 7083131.272910544,
        "Time(s)": 136
    },
    {
        "Altitude(m)": 706790.5694061865,
        "Argument of Periapsis(deg)": 0.008212876855620568,
        "Eccentricity": 0.0,
        "Inclination(deg)": 45.0,
        "Latitude(deg)": 42.834113261456395,
        "Longitude(deg)": 107.21079058005074,
        "Mean Anomaly(deg)": 106.49785621423618,
        "RAAN(deg)": 94.99224728431699,
        "Satellite Name": "Constellation 1 424",
        "Satellite Number": 424,
        "Semi-Major Axis(m)": 7083131.272910544,
        "Time(s)": 137
    },
    {
        "Altitude(m)": 706786.8749372524,
        "Argument of Periapsis(deg)": 0.008272824861865974,
        "Eccentricity": 0.0,
        "Inclination(deg)": 45.0,
        "Latitude(deg)": 42.817439116193704,
        "Longitude(deg)": 107.28611784896799,
        "Mean Anomaly(deg)": 106.55855735448607,
        "RAAN(deg)": 94.99219069515142,
        "Satellite Name": "Constellation 1 424",
        "Satellite Number": 424,
        "Semi-Major Axis(m)": 7083131.272910544,
        "Time(s)": 138
    },
    {
        "Altitude(m)": 706783.1689160278,
        "Argument of Periapsis(deg)": 0.00833277286811138,
        "Eccentricity": 0.0,
        "Inclination(deg)": 45.0,
        "Latitude(deg)": 42.80070986721113,
        "Longitude(deg)": 107.3614024039153,
        "Mean Anomaly(deg)": 106.61925849473596,
        "RAAN(deg)": 94.99213410598584,
        "Satellite Name": "Constellation 1 424",
        "Satellite Number": 424,
        "Semi-Major Axis(m)": 7083131.272910544,
        "Time(s)": 139
    },
    {
        "Altitude(m)": 706779.4513645384,
        "Argument of Periapsis(deg)": 0.008392720874356788,
        "Eccentricity": 0.0,
        "Inclination(deg)": 45.0,
        "Latitude(deg)": 42.78392557579567,
        "Longitude(deg)": 107.43664415228764,
        "Mean Anomaly(deg)": 106.67995963498589,
        "RAAN(deg)": 94.99207751682027,
        "Satellite Name": "Constellation 1 424",
        "Satellite Number": 424,
        "Semi-Major Axis(m)": 7083131.272910544,
        "Time(s)": 140
    },
    {
        "Altitude(m)": 706775.7223048857,
        "Argument of Periapsis(deg)": 0.008452668880602192,
        "Eccentricity": 0.0,
        "Inclination(deg)": 45.0,
        "Latitude(deg)": 42.76708630335124,
        "Longitude(deg)": 107.51184283394811,
        "Mean Anomaly(deg)": 106.74066077523577,
        "RAAN(deg)": 94.99202092765469,
        "Satellite Name": "Constellation 1 424",
        "Satellite Number": 424,
        "Semi-Major Axis(m)": 7083131.272910544,
        "Time(s)": 141
    },
    {
        "Altitude(m)": 706771.981759244,
        "Argument of Periapsis(deg)": 0.008512616886847598,
        "Eccentricity": 0.0,
        "Inclination(deg)": 45.0,
        "Latitude(deg)": 42.75019211139727,
        "Longitude(deg)": 107.5869986936174,
        "Mean Anomaly(deg)": 106.80136191548566,
        "RAAN(deg)": 94.99196433848913,
        "Satellite Name": "Constellation 1 424",
        "Satellite Number": 424,
        "Semi-Major Axis(m)": 7083131.272910544,
        "Time(s)": 142
    },
    {
        "Altitude(m)": 706768.229749854,
        "Argument of Periapsis(deg)": 0.008572564893093004,
        "Eccentricity": 0.0,
        "Inclination(deg)": 45.0,
        "Latitude(deg)": 42.7332430615685,
        "Longitude(deg)": 107.6621114722897,
        "Mean Anomaly(deg)": 106.86206305573555,
        "RAAN(deg)": 94.99190774932357,
        "Satellite Name": "Constellation 1 424",
        "Satellite Number": 424,
        "Semi-Major Axis(m)": 7083131.272910544,
        "Time(s)": 143
    },
    {
        "Altitude(m)": 706764.4662990279,
        "Argument of Periapsis(deg)": 0.008632512899338408,
        "Eccentricity": 0.0,
        "Inclination(deg)": 45.0,
        "Latitude(deg)": 42.716239215613584,
        "Longitude(deg)": 107.73718107962196,
        "Mean Anomaly(deg)": 106.92276419598547,
        "RAAN(deg)": 94.99185116015799,
        "Satellite Name": "Constellation 1 424",
        "Satellite Number": 424,
        "Semi-Major Axis(m)": 7083131.272910544,
        "Time(s)": 144
    },
    {
        "Altitude(m)": 706760.6914291494,
        "Argument of Periapsis(deg)": 0.008692460905583814,
        "Eccentricity": 0.0,
        "Inclination(deg)": 45.0,
        "Latitude(deg)": 42.69918063539438,
        "Longitude(deg)": 107.81220742583635,
        "Mean Anomaly(deg)": 106.98346533623537,
        "RAAN(deg)": 94.99179457099243,
        "Satellite Name": "Constellation 1 424",
        "Satellite Number": 424,
        "Semi-Major Axis(m)": 7083131.272910544,
        "Time(s)": 145
    },
    {
        "Altitude(m)": 706756.9051626776,
        "Argument of Periapsis(deg)": 0.00875240891182922,
        "Eccentricity": 0.0,
        "Inclination(deg)": 45.0,
        "Latitude(deg)": 42.682067382884966,
        "Longitude(deg)": 107.88719042172018,
        "Mean Anomaly(deg)": 107.04416647648524,
        "RAAN(deg)": 94.99173798182684,
        "Satellite Name": "Constellation 1 424",
        "Satellite Number": 424,
        "Semi-Major Axis(m)": 7083131.272910544,
        "Time(s)": 146
    },
    {
        "Altitude(m)": 706753.1075221333,
        "Argument of Periapsis(deg)": 0.008812356918074627,
        "Eccentricity": 0.0,
        "Inclination(deg)": 45.0,
        "Latitude(deg)": 42.66489952017073,
        "Longitude(deg)": 107.96212997862604,
        "Mean Anomaly(deg)": 107.10486761673518,
        "RAAN(deg)": 94.99168139266129,
        "Satellite Name": "Constellation 1 424",
        "Satellite Number": 424,
        "Semi-Major Axis(m)": 7083131.272910544,
        "Time(s)": 147
    },
    {
        "Altitude(m)": 706749.2985301112,
        "Argument of Periapsis(deg)": 0.008872304924320031,
        "Eccentricity": 0.0,
        "Inclination(deg)": 45.0,
        "Latitude(deg)": 42.64767710944767,
        "Longitude(deg)": 108.0370258403738,
        "Mean Anomaly(deg)": 107.16556875698505,
        "RAAN(deg)": 94.99162480349572,
        "Satellite Name": "Constellation 1 424",
        "Satellite Number": 424,
        "Semi-Major Axis(m)": 7083131.272910544,
        "Time(s)": 148
    },
    {
        "Altitude(m)": 706745.4782092789,
        "Argument of Periapsis(deg)": 0.008932252930565437,
        "Eccentricity": 0.0,
        "Inclination(deg)": 45.0,
        "Latitude(deg)": 42.63040021302108,
        "Longitude(deg)": 108.1118782556404,
        "Mean Anomaly(deg)": 107.22626989723499,
        "RAAN(deg)": 94.99156821433016,
        "Satellite Name": "Constellation 1 424",
        "Satellite Number": 424,
        "Semi-Major Axis(m)": 7083131.272910544,
        "Time(s)": 149
    },
    {
        "Altitude(m)": 706741.6465823697,
        "Argument of Periapsis(deg)": 0.008992200936810843,
        "Eccentricity": 0.0,
        "Inclination(deg)": 45.0,
        "Latitude(deg)": 42.613068893305105,
        "Longitude(deg)": 108.18668696937512,
        "Mean Anomaly(deg)": 107.28697103748482,
        "RAAN(deg)": 94.99151162516458,
        "Satellite Name": "Constellation 1 424",
        "Satellite Number": 424,
        "Semi-Major Axis(m)": 7083131.272910544,
        "Time(s)": 150
    },
    {
        "Altitude(m)": 706737.8036721915,
        "Argument of Periapsis(deg)": 0.009052148943056249,
        "Eccentricity": 0.0,
        "Inclination(deg)": 45.0,
        "Latitude(deg)": 42.59568321282149,
        "Longitude(deg)": 108.26145189518923,
        "Mean Anomaly(deg)": 107.34767217773472,
        "RAAN(deg)": 94.99145503599902,
        "Satellite Name": "Constellation 1 424",
        "Satellite Number": 424,
        "Semi-Major Axis(m)": 7083131.272910544,
        "Time(s)": 151
    }
]